NORAD_CAT_ID,OBJECT_NAME,OBJECT_TYPE,EPOCH,MEAN_MOTION,ECCENTRICITY,INCLINATION,RA_OF_ASC_NODE,ARG_OF_PERICENTER,MEAN_ANOMALY,BSTAR,MEAN_MOTION_DOT,MEAN_MOTION_DDOT,TLE_LINE0,TLE_LINE1,TLE_LINE2,SEMIMAJOR_AXIS,PERIOD,APOGEE,PERIGEE,DECAYED
50200.0,STARLINK-3235,PAYLOAD,2023-12-16 03:10:08,15.08840366,0.0001751,53.2175,295.8229,92.0325,268.0867,4.0188e-05,3.52e-06,0.0,0 STARLINK-3235,1 50200U 21125AW  23350.13204690  .00000352  00000-0  40188-4 0  9991,2 50200  53.2175 295.8229 0001751  92.0325 268.0867 15.08840366113298,6917.879,95.438,540.956,538.533,0.0
50200.0,STARLINK-3235,PAYLOAD,2023-12-17 03:00:55,15.08847461,0.000175,53.2178,291.3647,97.4374,262.6817,-2.9331e-05,-7.55e-06,0.0,0 STARLINK-3235,1 50200U 21125AW  23351.12564402 -.00000755  00000-0 -29331-4 0  9997,2 50200  53.2178 291.3647 0001750  97.4374 262.6817 15.08847461113926,6917.858,95.437,540.933,538.512,0.0
50200.0,STARLINK-3235,PAYLOAD,2023-12-18 02:51:42,15.08861264,0.0001815,53.2178,286.904,95.7115,264.4084,0.00047983,7.361e-05,0.0,0 STARLINK-3235,1 50200U 21125AW  23352.11923809  .00007361  00000-0  47983-3 0  9997,2 50200  53.2178 286.9040 0001815  95.7115 264.4084 15.08861264113595,6917.815,95.436,540.936,538.425,0.0
50200.0,STARLINK-3235,PAYLOAD,2023-12-19 02:42:30,15.08830793,0.0001431,53.2174,282.4446,88.2567,271.8589,-0.0001126,-2.079e-05,0.0,0 STARLINK-3235,1 50200U 21125AW  23353.11285059 -.00002079  00000-0 -11260-3 0  9998,2 50200  53.2174 282.4446 0001431  88.2567 271.8589 15.08830793113746,6917.909,95.438,540.763,538.784,0.0
50200.0,STARLINK-3235,PAYLOAD,2023-12-20 02:33:17,15.08841761,0.0001519,53.2165,277.9822,62.8131,297.3016,0.00068223,0.00010587,0.0,0 STARLINK-3235,1 50200U 21125AW  23354.10645704  .00010587  00000-0  68223-3 0  9997,2 50200  53.2165 277.9822 0001519  62.8131 297.3016 15.08841761113896,6917.875,95.437,540.791,538.689,0.0
50200.0,STARLINK-3235,PAYLOAD,2023-12-21 02:24:04,15.08862787,0.0001746,53.2168,273.5206,59.2934,300.823,0.00069132,0.00010738,0.0,0 STARLINK-3235,1 50200U 21125AW  23355.10004934  .00010738  00000-0  69132-3 0  9990,2 50200  53.2168 273.5206 0001746  59.2934 300.8230 15.08862787114520,6917.811,95.436,540.884,538.468,0.0
50200.0,STARLINK-3235,PAYLOAD,2023-12-22 00:39:28,15.08840907,0.000191,53.2169,269.356,61.2949,298.8235,0.0001843,2.646e-05,0.0,0 STARLINK-3235,1 50200U 21125AW  23356.02741717  .00002646  00000-0  18430-3 0  9993,2 50200  53.2169 269.3560 0001910  61.2949 298.8235 15.08840907114182,6917.878,95.437,541.064,538.421,0.0
50200.0,STARLINK-3235,PAYLOAD,2023-12-23 03:41:02,15.08849902,0.0002096,53.2167,264.2957,65.6768,294.4443,0.00061085,9.45e-05,0.0,0 STARLINK-3235,1 50200U 21125AW  23357.15349916  .00009450  00000-0  61085-3 0  9997,2 50200  53.2167 264.2957 0002096  65.6768 294.4443 15.08849902114353,6917.85,95.437,541.165,538.265,0.0
50200.0,STARLINK-3235,PAYLOAD,2023-12-23 21:10:16,15.08845544,0.000206,53.2176,261.0196,118.5875,241.5325,0.00036671,5.554e-05,0.0,0 STARLINK-3235,1 50200U 21125AW  23357.88213655  .00005554  00000-0  36671-3 0  9991,2 50200  53.2176 261.0196 0002060 118.5875 241.5325 15.08845544114946,6917.863,95.437,541.154,538.303,0.0
50200.0,STARLINK-3235,PAYLOAD,2023-12-24 00:21:02,15.08849227,0.0001866,53.2182,260.4238,100.759,259.3612,0.00038019,5.769e-05,0.0,0 STARLINK-3235,1 50200U 21125AW  23358.01461633  .00005769  00000-0  38019-3 0  9994,2 50200  53.2182 260.4238 0001866 100.7590 259.3612 15.08849227114480,6917.852,95.437,541.008,538.426,0.0
50200.0,STARLINK-3235,PAYLOAD,2023-12-24 17:50:17,15.08846831,0.0001987,53.2171,257.1661,98.9299,261.1919,0.00032969,4.964e-05,0.0,0 STARLINK-3235,1 50200U 21125AW  23358.74325790  .00004964  00000-0  32969-3 0  9991,2 50200  53.2171 257.1661 0001987  98.9299 261.1919 15.08846831114590,6917.86,95.437,541.099,538.35,0.0
50200.0,STARLINK-3235,PAYLOAD,2023-12-24 22:36:26,15.08852633,0.0001835,53.2171,256.2747,91.2285,268.8918,0.00033048,4.977e-05,0.0,0 STARLINK-3235,1 50200U 21125AW  23358.94197364  .00004977  00000-0  33048-3 0  9990,2 50200  53.2171 256.2747 0001835  91.2285 268.8918 15.08852633115106,6917.842,95.437,540.976,538.437,0.0
50200.0,STARLINK-3235,PAYLOAD,2023-12-25 03:22:35,15.08858102,0.0001861,53.2172,255.3797,91.6117,268.5088,0.00071644,0.00011138,0.0,0 STARLINK-3235,1 50200U 21125AW  23359.14069286  .00011138  00000-0  71644-3 0  9995,2 50200  53.2172 255.3797 0001861  91.6117 268.5088 15.08858102115134,6917.825,95.436,540.977,538.403,0.0
50200.0,STARLINK-3235,PAYLOAD,2023-12-25 22:27:13,15.08844095,0.0001772,53.2157,251.8047,111.2804,248.8378,0.00022148,3.239e-05,0.0,0 STARLINK-3235,1 50200U 21125AW  23359.93557438  .00003239  00000-0  22148-3 0  9991,2 50200  53.2157 251.8047 0001772 111.2804 248.8378 15.08844095115251,6917.868,95.437,540.959,538.507,0.0
50200.0,STARLINK-3235,PAYLOAD,2023-12-26 03:13:23,15.08837491,0.0001865,53.217,250.9297,117.5186,242.5996,8.0727e-05,9.97e-06,0.0,0 STARLINK-3235,1 50200U 21125AW  23360.13429784  .00000997  00000-0  80727-4 0  9993,2 50200  53.2170 250.9297 0001865 117.5186 242.5996 15.08837491114807,6917.888,95.438,541.043,538.463,0.0
50200.0,STARLINK-3235,PAYLOAD,2023-12-26 20:42:38,15.08827449,0.000162,53.2153,247.6518,115.1287,244.9873,0.00026518,3.933e-05,0.0,0 STARLINK-3235,1 50200U 21125AW  23360.86294687  .00003933  00000-0  26518-3 0  9995,2 50200  53.2153 247.6518 0001620 115.1287 244.9873 15.08827449114916,6917.919,95.438,540.904,538.663,0.0
50200.0,STARLINK-3235,PAYLOAD,2023-12-26 22:18:01,15.08831635,0.0001618,53.215,247.3545,116.3749,243.7409,0.00046359,7.096e-05,0.0,0 STARLINK-3235,1 50200U 21125AW  23360.92918702  .00007096  00000-0  46359-3 0  9992,2 50200  53.2150 247.3545 0001618 116.3749 243.7409 15.08831635115402,6917.906,95.438,540.89,538.652,0.0
50200.0,STARLINK-3235,PAYLOAD,2023-12-27 01:28:48,15.08835035,0.0001742,53.2154,246.7592,117.2623,242.8547,0.0011854,0.00018625,0.0,0 STARLINK-3235,1 50200U 21125AW  23361.06167021  .00018625  00000-0  11854-2 0  9999,2 50200  53.2154 246.7592 0001742 117.2623 242.8547 15.08835035114949,6917.896,95.438,540.966,538.555,0.0
50200.0,STARLINK-3235,PAYLOAD,2023-12-27 22:08:48,15.0886024,0.0001636,53.2143,242.8945,119.4263,240.6893,0.0008458,0.00013206,0.0,0 STARLINK-3235,1 50200U 21125AW  23361.92278404  .00013206  00000-0  84580-3 0  9999,2 50200  53.2143 242.8945 0001636 119.4263 240.6893 15.08860240115556,6917.819,95.436,540.815,538.552,0.0
50200.0,STARLINK-3235,PAYLOAD,2023-12-28 01:19:34,15.08865844,0.0001608,53.2144,242.2994,118.6861,241.4293,0.00092802,0.00014523,0.0,0 STARLINK-3235,1 50200U 21125AW  23362.05526166  .00014523  00000-0  92802-3 0  9994,2 50200  53.2144 242.2994 0001608 118.6861 241.4293 15.08865844115579,6917.801,95.436,540.779,538.554,0.0
50200.0,STARLINK-3235,PAYLOAD,2023-12-28 20:24:12,15.08852651,0.0001905,53.2139,238.7248,112.3454,247.774,0.00027573,4.104e-05,0.0,0 STARLINK-3235,1 50200U 21125AW  23362.85013999  .00004104  00000-0  27573-3 0  9994,2 50200  53.2139 238.7248 0001905 112.3454 247.7740 15.08852651115695,6917.842,95.437,541.025,538.389,0.0
50200.0,STARLINK-3235,PAYLOAD,2023-12-28 23:34:58,15.08851005,0.0001519,53.2142,238.1357,127.2345,232.8786,0.00030114,4.509e-05,0.0,0 STARLINK-3235,1 50200U 21125AW  23362.98261853  .00004509  00000-0  30114-3 0  9996,2 50200  53.2142 238.1357 0001519 127.2345 232.8786 15.08851005115236,6917.847,95.437,540.763,538.661,0.0
50200.0,STARLINK-3235,PAYLOAD,2023-12-29 21:50:22,15.08839211,0.0001496,53.2139,233.9724,105.2691,254.8466,0.00022484,3.292e-05,0.0,0 STARLINK-3235,1 50200U 21125AW  23363.90998336  .00003292  00000-0  22484-3 0  9991,2 50200  53.2139 233.9724 0001496 105.2691 254.8466 15.08839211115859,6917.883,95.438,540.783,538.713,0.0
50200.0,STARLINK-3235,PAYLOAD,2023-12-30 01:01:08,15.08843635,0.0001559,53.2143,233.3758,112.0187,248.0971,0.00015444,2.171e-05,0.0,0 STARLINK-3235,1 50200U 21125AW  23364.04246180  .00002171  00000-0  15444-3 0  9993,2 50200  53.2143 233.3758 0001559 112.0187 248.0971 15.08843635115391,6917.869,95.437,540.813,538.656,0.0
50200.0,STARLINK-3235,PAYLOAD,2023-12-30 21:41:09,15.08843172,0.0001577,53.2157,229.5086,95.1594,264.9578,0.00015815,2.23e-05,0.0,0 STARLINK-3235,1 50200U 21125AW  23364.90358368  .00002230  00000-0  15815-3 0  9998,2 50200  53.2157 229.5086 0001577  95.1594 264.9578 15.08843172116005,6917.871,95.437,540.827,538.645,0.0
50200.0,STARLINK-3235,PAYLOAD,2023-12-31 00:51:55,15.08842968,0.000156,53.2154,228.9144,96.8459,263.271,0.00014526,2.025e-05,0.0,0 STARLINK-3235,1 50200U 21125AW  23365.03606355  .00002025  00000-0  14526-3 0  9995,2 50200  53.2154 228.9144 0001560  96.8459 263.2710 15.08842968115540,6917.871,95.437,540.816,538.657,0.0
50200.0,STARLINK-3235,PAYLOAD,2023-12-31 21:31:56,15.08839789,0.0001546,53.215,225.048,111.7007,248.4149,7.2021e-05,8.58e-06,0.0,0 STARLINK-3235,1 50200U 21125AW  23365.89718455  .00000858  00000-0  72021-4 0  9991,2 50200  53.2150 225.0480 0001546 111.7007 248.4149 15.08839789116153,6917.881,95.438,540.816,538.677,0.0
50200.0,STARLINK-3235,PAYLOAD,2024-01-01 21:22:43,15.08844408,0.000142,53.2158,220.5888,103.2979,256.8172,9.8464e-05,1.28e-05,0.0,0 STARLINK-3235,1 50200U 21125AW  24001.89078189  .00001280  00000-0  98464-4 0  9991,2 50200  53.2158 220.5888 0001420 103.2979 256.8172 15.08844408116308,6917.867,95.437,540.714,538.75,0.0
50200.0,STARLINK-3235,PAYLOAD,2024-01-02 00:33:29,15.08843952,0.0001414,53.2157,219.9944,101.6599,258.4552,8.8491e-05,1.121e-05,0.0,0 STARLINK-3235,1 50200U 21125AW  24002.02326214  .00001121  00000-0  88491-4 0  9995,2 50200  53.2157 219.9944 0001414 101.6599 258.4552 15.08843952115846,6917.868,95.437,540.711,538.755,0.0
50200.0,STARLINK-3235,PAYLOAD,2024-01-02 21:13:30,15.08841434,0.0001365,53.2156,216.1288,100.2128,259.9018,8.712e-05,1.099e-05,0.0,0 STARLINK-3235,1 50200U 21125AW  24002.88438331  .00001099  00000-0  87120-4 0  9995,2 50200  53.2156 216.1288 0001365 100.2128 259.9018 15.08841434116457,6917.876,95.437,540.685,538.797,0.0
